[{"OBJECT_NAME":"QIANFAN-69","OBJECT_ID":"2025-016Q","EPOCH":"2026-03-07T03:07:55.161984","MEAN_MOTION":13.51005447,"ECCENTRICITY":0.001798,"INCLINATION":88.9665,"RA_OF_ASC_NODE":94.2155,"ARG_OF_PERICENTER":100.7282,"MEAN_ANOMALY":259.5895,"EPHEMERIS_TYPE":0,"CLASSIFICATION_TYPE":"U","NORAD_CAT_ID":62799,"ELEMENT_SET_NO":999,"REV_AT_EPOCH":5867,"BSTAR":4.7898e-5,"MEAN_MOTION_DOT":4.3e-7,"MEAN_MOTION_DDOT":0},{"OBJECT_NAME":"QIANFAN-70","OBJECT_ID":"2025-016R","EPOCH":"2026-03-07T03:31:34.401216","MEAN_MOTION":13.5099723,"ECCENTRICITY":0.0017562,"INCLINATION":88.9686,"RA_OF_ASC_NODE":94.3702,"ARG_OF_PERICENTER":92.2329,"MEAN_ANOMALY":268.0833,"EPHEMERIS_TYPE":0,"CLASSIFICATION_TYPE":"U","NORAD_CAT_ID":62800,"ELEMENT_SET_NO":999,"REV_AT_EPOCH":5863,"BSTAR":5.5733e-5,"MEAN_MOTION_DOT":4.8e-7,"MEAN_MOTION_DDOT":0},{"OBJECT_NAME":"QIANFAN-71","OBJECT_ID":"2025-016S","EPOCH":"2026-03-07T03:25:34.186656","MEAN_MOTION":13.50996691,"ECCENTRICITY":0.0017873,"INCLINATION":88.968,"RA_OF_ASC_NODE":94.345,"ARG_OF_PERICENTER":103.8344,"MEAN_ANOMALY":256.4797,"EPHEMERIS_TYPE":0,"CLASSIFICATION_TYPE":"U","NORAD_CAT_ID":62801,"ELEMENT_SET_NO":999,"REV_AT_EPOCH":5863,"BSTAR":4.7952e-5,"MEAN_MOTION_DOT":4.3e-7,"MEAN_MOTION_DDOT":0},{"OBJECT_NAME":"QIANFAN-72","OBJECT_ID":"2025-016T","EPOCH":"2026-03-07T03:49:17.128128","MEAN_MOTION":13.50996312,"ECCENTRICITY":0.002109,"INCLINATION":88.967,"RA_OF_ASC_NODE":94.3484,"ARG_OF_PERICENTER":110.4045,"MEAN_ANOMALY":249.9374,"EPHEMERIS_TYPE":0,"CLASSIFICATION_TYPE":"U","NORAD_CAT_ID":62802,"ELEMENT_SET_NO":999,"REV_AT_EPOCH":5862,"BSTAR":2.0614e-5,"MEAN_MOTION_DOT":2.6e-7,"MEAN_MOTION_DDOT":0},{"OBJECT_NAME":"QIANFAN-73","OBJECT_ID":"2025-046A","EPOCH":"2026-03-07T04:27:57.208320","MEAN_MOTION":13.50998762,"ECCENTRICITY":0.0013195,"INCLINATION":88.9756,"RA_OF_ASC_NODE":311.3015,"ARG_OF_PERICENTER":237.7616,"MEAN_ANOMALY":122.2257,"EPHEMERIS_TYPE":0,"CLASSIFICATION_TYPE":"U","NORAD_CAT_ID":63159,"ELEMENT_SET_NO":999,"REV_AT_EPOCH":5881,"BSTAR":0.00022471,"MEAN_MOTION_DOT":1.57e-6,"MEAN_MOTION_DDOT":0},{"OBJECT_NAME":"QIANFAN-74","OBJECT_ID":"2025-046B","EPOCH":"2026-03-07T04:04:20.148960","MEAN_MOTION":13.5099872,"ECCENTRICITY":0.000191,"INCLINATION":88.9756,"RA_OF_ASC_NODE":311.192,"ARG_OF_PERICENTER":78.7767,"MEAN_ANOMALY":281.3599,"EPHEMERIS_TYPE":0,"CLASSIFICATION_TYPE":"U","NORAD_CAT_ID":63160,"ELEMENT_SET_NO":999,"REV_AT_EPOCH":5887,"BSTAR":0.00024578,"MEAN_MOTION_DOT":1.71e-6,"MEAN_MOTION_DDOT":0},{"OBJECT_NAME":"QIANFAN-75","OBJECT_ID":"2025-046C","EPOCH":"2026-03-07T03:45:49.527072","MEAN_MOTION":13.50974732,"ECCENTRICITY":0.0014351,"INCLINATION":88.9759,"RA_OF_ASC_NODE":311.4283,"ARG_OF_PERICENTER":241.7415,"MEAN_ANOMALY":118.2288,"EPHEMERIS_TYPE":0,"CLASSIFICATION_TYPE":"U","NORAD_CAT_ID":63161,"ELEMENT_SET_NO":999,"REV_AT_EPOCH":5874,"BSTAR":9.1059e-5,"MEAN_MOTION_DOT":7.1e-7,"MEAN_MOTION_DDOT":0},{"OBJECT_NAME":"QIANFAN-76","OBJECT_ID":"2025-046D","EPOCH":"2026-03-07T03:40:30.476064","MEAN_MOTION":13.51006663,"ECCENTRICITY":0.0011915,"INCLINATION":88.9756,"RA_OF_ASC_NODE":311.4085,"ARG_OF_PERICENTER":242.0619,"MEAN_ANOMALY":117.9327,"EPHEMERIS_TYPE":0,"CLASSIFICATION_TYPE":"U","NORAD_CAT_ID":63162,"ELEMENT_SET_NO":999,"REV_AT_EPOCH":5875,"BSTAR":0.00020823,"MEAN_MOTION_DOT":1.46e-6,"MEAN_MOTION_DDOT":0},{"OBJECT_NAME":"QIANFAN-77","OBJECT_ID":"2025-046E","EPOCH":"2026-03-07T04:27:22.581792","MEAN_MOTION":13.96175643,"ECCENTRICITY":0.001465,"INCLINATION":88.9753,"RA_OF_ASC_NODE":308.7181,"ARG_OF_PERICENTER":169.4251,"MEAN_ANOMALY":190.7237,"EPHEMERIS_TYPE":0,"CLASSIFICATION_TYPE":"U","NORAD_CAT_ID":63163,"ELEMENT_SET_NO":999,"REV_AT_EPOCH":6023,"BSTAR":0.0002583,"MEAN_MOTION_DOT":3.69e-6,"MEAN_MOTION_DDOT":0},{"OBJECT_NAME":"QIANFAN-78","OBJECT_ID":"2025-046F","EPOCH":"2026-03-07T02:53:09.442752","MEAN_MOTION":13.50999072,"ECCENTRICITY":0.0013221,"INCLINATION":88.9756,"RA_OF_ASC_NODE":311.2751,"ARG_OF_PERICENTER":245.1614,"MEAN_ANOMALY":114.8162,"EPHEMERIS_TYPE":0,"CLASSIFICATION_TYPE":"U","NORAD_CAT_ID":63164,"ELEMENT_SET_NO":999,"REV_AT_EPOCH":5882,"BSTAR":0.00025957,"MEAN_MOTION_DOT":1.8e-6,"MEAN_MOTION_DDOT":0},{"OBJECT_NAME":"QIANFAN-79","OBJECT_ID":"2025-046G","EPOCH":"2026-03-07T03:34:49.098432","MEAN_MOTION":13.51009205,"ECCENTRICITY":0.0013091,"INCLINATION":88.976,"RA_OF_ASC_NODE":311.383,"ARG_OF_PERICENTER":243.1901,"MEAN_ANOMALY":116.7912,"EPHEMERIS_TYPE":0,"CLASSIFICATION_TYPE":"U","NORAD_CAT_ID":63165,"ELEMENT_SET_NO":999,"REV_AT_EPOCH":5877,"BSTAR":0.00026505,"MEAN_MOTION_DOT":1.83e-6,"MEAN_MOTION_DDOT":0},{"OBJECT_NAME":"QIANFAN-80","OBJECT_ID":"2025-046H","EPOCH":"2026-03-07T03:58:18.196896","MEAN_MOTION":13.50998743,"ECCENTRICITY":0.0011897,"INCLINATION":88.9757,"RA_OF_ASC_NODE":311.0858,"ARG_OF_PERICENTER":247.7878,"MEAN_ANOMALY":112.2011,"EPHEMERIS_TYPE":0,"CLASSIFICATION_TYPE":"U","NORAD_CAT_ID":63166,"ELEMENT_SET_NO":999,"REV_AT_EPOCH":5893,"BSTAR":0.00024073,"MEAN_MOTION_DOT":1.67e-6,"MEAN_MOTION_DDOT":0},{"OBJECT_NAME":"QIANFAN-81","OBJECT_ID":"2025-046J","EPOCH":"2026-03-07T03:26:52.078848","MEAN_MOTION":13.50984535,"ECCENTRICITY":0.001303,"INCLINATION":88.9757,"RA_OF_ASC_NODE":311.1559,"ARG_OF_PERICENTER":235.6045,"MEAN_ANOMALY":124.3875,"EPHEMERIS_TYPE":0,"CLASSIFICATION_TYPE":"U","NORAD_CAT_ID":63167,"ELEMENT_SET_NO":999,"REV_AT_EPOCH":5888,"BSTAR":0.00021058,"MEAN_MOTION_DOT":1.48e-6,"MEAN_MOTION_DDOT":0},{"OBJECT_NAME":"QIANFAN-82","OBJECT_ID":"2025-046K","EPOCH":"2026-03-07T04:16:08.254848","MEAN_MOTION":13.51000107,"ECCENTRICITY":0.0011041,"INCLINATION":88.9757,"RA_OF_ASC_NODE":311.1964,"ARG_OF_PERICENTER":243.2053,"MEAN_ANOMALY":116.797,"EPHEMERIS_TYPE":0,"CLASSIFICATION_TYPE":"U","NORAD_CAT_ID":63168,"ELEMENT_SET_NO":999,"REV_AT_EPOCH":5887,"BSTAR":0.00023691,"MEAN_MOTION_DOT":1.65e-6,"MEAN_MOTION_DDOT":0},{"OBJECT_NAME":"QIANFAN-83","OBJECT_ID":"2025-046L","EPOCH":"2026-03-07T04:25:32.533248","MEAN_MOTION":13.62022164,"ECCENTRICITY":0.0012582,"INCLINATION":88.9757,"RA_OF_ASC_NODE":310.8062,"ARG_OF_PERICENTER":221.0844,"MEAN_ANOMALY":138.9367,"EPHEMERIS_TYPE":0,"CLASSIFICATION_TYPE":"U","NORAD_CAT_ID":63169,"ELEMENT_SET_NO":999,"REV_AT_EPOCH":5909,"BSTAR":0.0003478,"MEAN_MOTION_DOT":2.8e-6,"MEAN_MOTION_DDOT":0},{"OBJECT_NAME":"QIANFAN-84","OBJECT_ID":"2025-046M","EPOCH":"2026-03-07T03:09:37.133856","MEAN_MOTION":13.50962315,"ECCENTRICITY":0.0013992,"INCLINATION":88.9757,"RA_OF_ASC_NODE":311.3336,"ARG_OF_PERICENTER":239.8604,"MEAN_ANOMALY":120.1161,"EPHEMERIS_TYPE":0,"CLASSIFICATION_TYPE":"U","NORAD_CAT_ID":63170,"ELEMENT_SET_NO":999,"REV_AT_EPOCH":5879,"BSTAR":0.00024657,"MEAN_MOTION_DOT":1.71e-6,"MEAN_MOTION_DDOT":0},{"OBJECT_NAME":"QIANFAN-85","OBJECT_ID":"2025-046N","EPOCH":"2026-03-07T03:05:00.246912","MEAN_MOTION":13.51002819,"ECCENTRICITY":0.001146,"INCLINATION":88.9757,"RA_OF_ASC_NODE":311.2053,"ARG_OF_PERICENTER":242.1504,"MEAN_ANOMALY":117.8486,"EPHEMERIS_TYPE":0,"CLASSIFICATION_TYPE":"U","NORAD_CAT_ID":63171,"ELEMENT_SET_NO":999,"REV_AT_EPOCH":5886,"BSTAR":0.00024417,"MEAN_MOTION_DOT":1.7e-6,"MEAN_MOTION_DDOT":0}]
