QIANFAN-69              
1 62799U 25016Q   26066.13049956  .00000043  00000+0  47898-4 0  9990
2 62799  88.9665  94.2155 0017980 100.7282 259.5895 13.51005447 58677
QIANFAN-70              
1 62800U 25016R   26066.14692594  .00000048  00000+0  55733-4 0  9998
2 62800  88.9686  94.3702 0017562  92.2329 268.0833 13.50997230 58637
QIANFAN-71              
1 62801U 25016S   26066.14275679  .00000043  00000+0  47952-4 0  9999
2 62801  88.9680  94.3450 0017873 103.8344 256.4797 13.50996691 58633
QIANFAN-72              
1 62802U 25016T   26066.15922602  .00000026  00000+0  20614-4 0  9993
2 62802  88.9670  94.3484 0021090 110.4045 249.9374 13.50996312 58625
QIANFAN-73              
1 63159U 25046A   26066.18607880  .00000157  00000+0  22471-3 0  9990
2 63159  88.9756 311.3015 0013195 237.7616 122.2257 13.50998762 58817
QIANFAN-74              
1 63160U 25046B   26066.16967765  .00000171  00000+0  24578-3 0  9997
2 63160  88.9756 311.1920 0001910  78.7767 281.3599 13.50998720 58870
QIANFAN-75              
1 63161U 25046C   26066.15682323  .00000071  00000+0  91059-4 0  9999
2 63161  88.9759 311.4283 0014351 241.7415 118.2288 13.50974732 58740
QIANFAN-76              
1 63162U 25046D   26066.15313051  .00000146  00000+0  20823-3 0  9992
2 63162  88.9756 311.4085 0011915 242.0619 117.9327 13.51006663 58752
QIANFAN-77              
1 63163U 25046E   26066.18567803  .00000369  00000+0  25830-3 0  9992
2 63163  88.9753 308.7181 0014650 169.4251 190.7237 13.96175643 60238
QIANFAN-78              
1 63164U 25046F   26066.12024818  .00000180  00000+0  25957-3 0  9992
2 63164  88.9756 311.2751 0013221 245.1614 114.8162 13.50999072 58828
QIANFAN-79              
1 63165U 25046G   26066.14917938  .00000183  00000+0  26505-3 0  9992
2 63165  88.9760 311.3830 0013091 243.1901 116.7912 13.51009205 58774
QIANFAN-80              
1 63166U 25046H   26066.16548839  .00000167  00000+0  24073-3 0  9995
2 63166  88.9757 311.0858 0011897 247.7878 112.2011 13.50998743 58935
QIANFAN-81              
1 63167U 25046J   26066.14365832  .00000148  00000+0  21058-3 0  9993
2 63167  88.9757 311.1559 0013030 235.6045 124.3875 13.50984535 58888
QIANFAN-82              
1 63168U 25046K   26066.17787332  .00000165  00000+0  23691-3 0  9994
2 63168  88.9757 311.1964 0011041 243.2053 116.7970 13.51000107 58878
QIANFAN-83              
1 63169U 25046L   26066.18440432  .00000280  00000+0  34780-3 0  9992
2 63169  88.9757 310.8062 0012582 221.0844 138.9367 13.62022164 59097
QIANFAN-84              
1 63170U 25046M   26066.13167979  .00000171  00000+0  24657-3 0  9992
2 63170  88.9757 311.3336 0013992 239.8604 120.1161 13.50962315 58795
QIANFAN-85              
1 63171U 25046N   26066.12847508  .00000170  00000+0  24417-3 0  9998
2 63171  88.9757 311.2053 0011460 242.1504 117.8486 13.51002819 58861
